{"type":"FeatureCollection","features":[{"type":"Feature","geometry":{"type":"Polygon","coordinates":[[[-101.74145039826146,21.12388401812447],[-101.73479287698865,21.117634949740022],[-101.73479287698865,21.11582855693996],[-101.73575510829687,21.114925360539928],[-101.73767957091331,21.114925360539928],[-101.73864180222154,21.114022164139897],[-101.73864180222154,21.108602985739708],[-101.73767957091331,21.107699789339676],[-101.73575510829687,21.107699789339676],[-101.73479287698865,21.106796592939645],[-101.73479287698865,21.104990200139582],[-101.73383064568043,21.10408700373955],[-101.7280572578311,21.10408700373955],[-101.72709502652287,21.10318380733952],[-101.7280572578311,21.102280610939488],[-101.72998172044754,21.102280610939488],[-101.73094395175576,21.101377414539456],[-101.73094395175576,21.099571021739393],[-101.73190618306398,21.098667825339362],[-101.73383064568043,21.098667825339362],[-101.73479287698865,21.099571021739393],[-101.73479287698865,21.101377414539456],[-101.73575510829687,21.102280610939488],[-101.73767957091331,21.102280610939488],[-101.73864180222154,21.101377414539456],[-101.73864180222154,21.095958236139268],[-101.7415284961462,21.093248646939173],[-101.74345295876265,21.093248646939173],[-101.74441519007087,21.092345450539142],[-101.74441519007087,21.088732664939016],[-101.74730188399553,21.08602307573892],[-101.74922634661198,21.08602307573892],[-101.7501885779202,21.08511987933889],[-101.74826411530375,21.083313486538827],[-101.7501885779202,21.081507093738765],[-101.74922634661198,21.080603897338733],[-101.74633965268731,21.083313486538827],[-101.74633965268731,21.08511987933889],[-101.74441519007087,21.086926272138953],[-101.74345295876265,21.087829468538985],[-101.7415284961462,21.087829468538985],[-101.73864180222154,21.08511987933889],[-101.73864180222154,21.083313486538827],[-101.7367173396051,21.081507093738765],[-101.7367173396051,21.0797007009387],[-101.73575510829687,21.07879750453867],[-101.73383064568043,21.080603897338733],[-101.73190618306398,21.080603897338733],[-101.72998172044754,21.082410290138796],[-101.72613279521465,21.082410290138796],[-101.72420833259821,21.08421668293886],[-101.72228386998177,21.08421668293886],[-101.72132163867354,21.083313486538827],[-101.72132163867354,21.0797007009387],[-101.7193971760571,21.07789430813864],[-101.72132163867354,21.076087915338576],[-101.72132163867354,21.074281522538513],[-101.72324610128999,21.07247512973845],[-101.72324610128999,21.070668736938387],[-101.72517056390643,21.068862344138324],[-101.72420833259821,21.067959147738293],[-101.71843494474888,21.067959147738293],[-101.71362378820777,21.07247512973845],[-101.71362378820777,21.074281522538513],[-101.7107370942831,21.076991111738607],[-101.70688816905022,21.076991111738607],[-101.70496370643377,21.075184718938544],[-101.70400147512555,21.076087915338576],[-101.70400147512555,21.07789430813864],[-101.70303924381733,21.07879750453867],[-101.70111478120089,21.07879750453867],[-101.69919031858444,21.080603897338733],[-101.69822808727622,21.0797007009387],[-101.69822808727622,21.076087915338576],[-101.69437916204333,21.07247512973845],[-101.69437916204333,21.070668736938387],[-101.69630362465978,21.068862344138324],[-101.69534139335155,21.067959147738293],[-101.69341693073511,21.067959147738293],[-101.69149246811867,21.069765540538356],[-101.68956800550222,21.069765540538356],[-101.68764354288578,21.067959147738293],[-101.68668131157756,21.068862344138324],[-101.68668131157756,21.070668736938387],[-101.68571908026934,21.07157193333842],[-101.68475684896111,21.070668736938387],[-101.68475684896111,21.068862344138324],[-101.6837946176529,21.067959147738293],[-101.68090792372823,21.070668736938387],[-101.68090792372823,21.076087915338576],[-101.67802122980356,21.07879750453867],[-101.67609676718712,21.07879750453867],[-101.6751345358789,21.0797007009387],[-101.6751345358789,21.081507093738765],[-101.67609676718712,21.082410290138796],[-101.67802122980356,21.080603897338733],[-101.67898346111178,21.081507093738765],[-101.67898346111178,21.08511987933889],[-101.67231057970847,21.091383365477633],[-101.67123946367064,21.092388766300814],[-101.67123946367064,21.090602160897106],[-101.66931532969465,21.088795762625523],[-101.66931532969465,21.088775672223015],[-101.66936114802957,21.088732664939016],[-101.66936114802957,21.081507093738765],[-101.66839891672134,21.080603897338733],[-101.6664744541049,21.07879750453867],[-101.66454999148846,21.080603897338733],[-101.66262552887201,21.080603897338733],[-101.66166329756379,21.081507093738765],[-101.66166329756379,21.083313486538827],[-101.6616187937907,21.08335525991214],[-101.6616187937907,21.08157016953919],[-101.65873259282671,21.078860572131816],[-101.65680845885072,21.078860572131816],[-101.65296019089874,21.07524777558865],[-101.65103605692275,21.07524777558865],[-101.64911192294676,21.073441377317067],[-101.64718778897077,21.073441377317067],[-101.64526365499478,21.071634979045484],[-101.64333952101879,21.071634979045484],[-101.6414153870428,21.0698285807739],[-101.63949125306681,21.0698285807739],[-101.63756711909082,21.068022182502318],[-101.63564298511483,21.0698285807739],[-101.63371885113884,21.068022182502318],[-101.62987058318686,21.068022182502318],[-101.62890851619886,21.067118983366527],[-101.62890851619886,21.065312585094944],[-101.63083265017485,21.06350618682336],[-101.62987058318686,21.06260298768757],[-101.62794644921087,21.06260298768757],[-101.62602231523488,21.060796589415986],[-101.62409818125889,21.060796589415986],[-101.62313611427089,21.061699788551778],[-101.62313611427089,21.06350618682336],[-101.6202499133069,21.066215784230735],[-101.61928784631891,21.065312585094944],[-101.61928784631891,21.06350618682336],[-101.6212119802949,21.061699788551778],[-101.6202499133069,21.060796589415986],[-101.61832577933092,21.060796589415986],[-101.61159131041495,21.054474195465446],[-101.61159131041495,21.052667797193862],[-101.61062924342696,21.05176459805807],[-101.60678097547498,21.05176459805807],[-101.60389477451099,21.054474195465446],[-101.60389477451099,21.05628059373703],[-101.602932707523,21.05718379287282],[-101.601008573547,21.05718379287282],[-101.59908443957102,21.055377394601237],[-101.59716030559503,21.05718379287282],[-101.59523617161904,21.05718379287282],[-101.59331203764305,21.055377394601237],[-101.59138790366706,21.05718379287282],[-101.58753963571507,21.05718379287282],[-101.58657756872708,21.05628059373703],[-101.58657756872708,21.052667797193862],[-101.58753963571507,21.05176459805807],[-101.58946376969106,21.05176459805807],[-101.59042583667906,21.05086139892228],[-101.58753963571507,21.048151801514905],[-101.58657756872708,21.049055000650696],[-101.58657756872708,21.05086139892228],[-101.5836913677631,21.053570996329654],[-101.57984309981111,21.053570996329654],[-101.57888103282312,21.054474195465446],[-101.58080516679911,21.05628059373703],[-101.57888103282312,21.05808699200861],[-101.57984309981111,21.058990191144403],[-101.5817672337871,21.058990191144403],[-101.58465343475109,21.061699788551778],[-101.58465343475109,21.067118983366527],[-101.5827293007751,21.06892538163811],[-101.58465343475109,21.070731779909693],[-101.58465343475109,21.072538178181276],[-101.58850170270307,21.07615097472444],[-101.58850170270307,21.079763771267608],[-101.58946376969106,21.0806669704034],[-101.59138790366706,21.0806669704034],[-101.59234997065505,21.08157016953919],[-101.59138790366706,21.082473368674982],[-101.58946376969106,21.082473368674982],[-101.58850170270307,21.083376567810774],[-101.59042583667906,21.085182966082357],[-101.59042583667906,21.08698936435394],[-101.59331203764305,21.089698961761314],[-101.59523617161904,21.08789256348973],[-101.59716030559503,21.089698961761314],[-101.601008573547,21.089698961761314],[-101.601970640535,21.090602160897106],[-101.601970640535,21.09240855916869],[-101.60004650655901,21.094214957440272],[-101.601970640535,21.096021355711855],[-101.601970640535,21.097827753983438],[-101.60128913602276,21.09846755796193],[-101.59959906106815,21.096881088684313],[-101.59767469856888,21.096881088684313],[-101.59286379232071,21.101397074759007],[-101.59286379232071,21.103203469188884],[-101.59190161107108,21.104106666403823],[-101.58997724857181,21.104106666403823],[-101.5886921502109,21.10531298513113],[-101.58709070482291,21.10681625804864],[-101.58805288607255,21.107719455263577],[-101.58997724857181,21.107719455263577],[-101.59093942982145,21.108622652478516],[-101.59093942982145,21.11223544133827],[-101.58901506732218,21.11404183576815],[-101.59093942982145,21.115848230198026],[-101.59093942982145,21.117654624627903],[-101.58901506732218,21.11946101905778],[-101.58901506732218,21.121267413487658],[-101.59190161107108,21.123977005132474],[-101.59382597357035,21.122170610702597],[-101.59478815481998,21.123073807917535],[-101.59478815481998,21.130299385637045],[-101.59286379232071,21.132105780066922],[-101.59382597357035,21.13300897728186],[-101.59575033606961,21.13300897728186],[-101.59671251731925,21.1339121744968],[-101.59671251731925,21.135718568926677],[-101.59478815481998,21.137524963356555],[-101.59575033606961,21.138428160571493],[-101.59767469856888,21.138428160571493],[-101.60440996731631,21.144750541076064],[-101.60440996731631,21.15378251322545],[-101.60537214856595,21.15468571044039],[-101.60922087356448,21.15468571044039],[-101.61114523606375,21.156492104870267],[-101.61499396106228,21.156492104870267],[-101.61595614231192,21.157395302085206],[-101.61595614231192,21.16100809094496],[-101.61403177981265,21.162814485374838],[-101.61499396106228,21.163717682589777],[-101.61884268606082,21.163717682589777],[-101.62076704856008,21.1619112881599],[-101.62461577355862,21.1619112881599],[-101.62557795480825,21.162814485374838],[-101.62557795480825,21.166427274234593],[-101.62365359230898,21.16823366866447],[-101.62654013605788,21.170943260309286],[-101.63312065240933,21.170943260309286],[-101.63423758605495,21.170943260309286],[-101.63519976730458,21.171846457524225],[-101.63519976730458,21.17545924638398],[-101.63616194855422,21.17636244359892],[-101.64001067355275,21.172749654739164],[-101.64193503605202,21.17455604916904],[-101.64385939855129,21.172749654739164],[-101.64482157980092,21.173652851954103],[-101.64482157980092,21.17545924638398],[-101.64770812354982,21.178168838028796],[-101.65006253030151,21.178168838028796],[-101.65006253030151,21.178947586682625],[-101.64813752193004,21.18075397051871],[-101.64813752193004,21.18256035435479],[-101.64621251355857,21.184366738190874],[-101.6471750177443,21.185269930108916],[-101.64910002611578,21.183463546272833],[-101.65102503448725,21.183463546272833],[-101.65198753867298,21.18256035435479],[-101.65198753867298,21.18075397051871],[-101.65295004285872,21.179850778600667],[-101.65487505123019,21.179850778600667],[-101.65532981864897,21.179904121518977],[-101.65540557354689,21.179975232458673],[-101.65546449913161,21.17991991915462],[-101.65680005960166,21.180076576580177],[-101.65752193774097,21.18075397051871],[-101.66065007634461,21.187076313945],[-101.65968757215887,21.18797950586304],[-101.66450009308755,21.19249546545325],[-101.66546259727329,21.191592273535207],[-101.66546259727329,21.189785889699124],[-101.66642510145903,21.188882697781082],[-101.6683501098305,21.188882697781082],[-101.66931261401623,21.18797950586304],[-101.66931261401623,21.186173122026958],[-101.67508763913065,21.18075397051871],[-101.67508763913065,21.178947586682625],[-101.67701264750212,21.177141202846542],[-101.67701264750212,21.171722051338293],[-101.67797515168786,21.17081885942025],[-101.6818251684308,21.17081885942025],[-101.68375017680228,21.172625243256334],[-101.68567518517375,21.172851041235845],[-101.68760019354522,21.172851041235845],[-101.69064733215235,21.17267233091152],[-101.69145021028817,21.172625243256334],[-101.69323844830333,21.170947201595048],[-101.69500381941907,21.172603694722056],[-101.69692893140018,21.172603694722056],[-101.69789148739073,21.173506885766983],[-101.69789148739073,21.175313267856836],[-101.7007791553624,21.178022840991616],[-101.70174171135295,21.17711964994669],[-101.70174171135295,21.175313267856836],[-101.70366682333406,21.173506885766983],[-101.70174171135295,21.17170050367713],[-101.70174171135295,21.169894121587276],[-101.7027042673435,21.16899093054235],[-101.70847960328683,21.16899093054235],[-101.71425493923016,21.17441007681191],[-101.71618005121127,21.17441007681191],[-101.71810516319238,21.172603694722056],[-101.7219553871546,21.172603694722056],[-101.72484305512626,21.175313267856836],[-101.72484305512626,21.17711964994669],[-101.72580561111681,21.178022840991616],[-101.72965583507903,21.17441007681191],[-101.73350605904125,21.17441007681191],[-101.7344686150318,21.175313267856836],[-101.73254350305069,21.17711964994669],[-101.73254350305069,21.178926032036543],[-101.73350605904125,21.17982922308147],[-101.73543117102236,21.178022840991616],[-101.73928139498457,21.178022840991616],[-101.74024395097513,21.178926032036543],[-101.74024395097513,21.180732414126396],[-101.74313161894679,21.183441987261176],[-101.74409417493735,21.18253879621625],[-101.74216906295624,21.180732414126396],[-101.74313161894679,21.17982922308147],[-101.7450567309279,21.17982922308147],[-101.74601928691845,21.178926032036543],[-101.74601928691845,21.173506885766983],[-101.74698184290901,21.172603694722056],[-101.75275717885233,21.172603694722056],[-101.75371973484289,21.17170050367713],[-101.75275717885233,21.170797312632203],[-101.74890695489012,21.170797312632203],[-101.74794439889956,21.169894121587276],[-101.74794439889956,21.168087739497423],[-101.74601928691845,21.16628135740757],[-101.74698184290901,21.165378166362643],[-101.74890695489012,21.165378166362643],[-101.74986951088067,21.164474975317717],[-101.74890695489012,21.16357178427279],[-101.74698184290901,21.16357178427279],[-101.74601928691845,21.162668593227863],[-101.74890695489012,21.159959020093083],[-101.75275717885233,21.159959020093083],[-101.75371973484289,21.159055829048157],[-101.75371973484289,21.15544306486845],[-101.75275717885233,21.154539873823524],[-101.75083206687123,21.154539873823524],[-101.74601928691845,21.15002391859889],[-101.74601928691845,21.14460477232933],[-101.74986951088067,21.140992008149624],[-101.74698184290901,21.138282435014844],[-101.74313161894679,21.138282435014844],[-101.73928139498457,21.134669670835137],[-101.73735628300346,21.134669670835137],[-101.73639372701291,21.13376647979021],[-101.73639372701291,21.132389850421685],[-101.7367173396051,21.132086092140526],[-101.7367173396051,21.130279699340463],[-101.73960403352976,21.12757011014037],[-101.7415284961462,21.12757011014037],[-101.74249072745442,21.126666913740337],[-101.74249072745442,21.124860520940274],[-101.74378826164335,21.12364259319428],[-101.74441519007087,21.12305412814021],[-101.74345295876265,21.12215093174018],[-101.74162590250202,21.123865894268583],[-101.7415284961462,21.123957324540243],[-101.74145039826146,21.12388401812447]]]},"properties":{"id_oficina":3,"nombre_oficina":"Le\u00f3n","fecha_creacion":"2025-11-05 11:00:00.000000"}},{"type":"Feature","geometry":{"type":"Polygon","coordinates":[[[-103.35115150549446,20.74034563606215],[-103.35280976700597,20.741906074807048],[-103.35472948488314,20.741906074807048],[-103.35664920276031,20.74371254630387],[-103.36240835639182,20.74371254630387],[-103.36624779214617,20.74732548929751],[-103.37200694577768,20.74732548929751],[-103.37296680471627,20.74822872504592],[-103.37296680471627,20.75364813953638],[-103.37392666365486,20.75455137528479],[-103.37584638153203,20.75455137528479],[-103.37680624047061,20.7554546110332],[-103.37680624047061,20.760874025523663],[-103.3777660994092,20.761777261272073],[-103.37968581728637,20.761777261272073],[-103.38064567622496,20.762680497020483],[-103.38064567622496,20.764486968517303],[-103.37872595834779,20.766293440014124],[-103.37872595834779,20.769906383007765],[-103.37968581728637,20.770809618756175],[-103.38160553516354,20.769003147259355],[-103.38352525304072,20.769003147259355],[-103.38640482985647,20.766293440014124],[-103.38640482985647,20.762680497020483],[-103.38736468879506,20.761777261272073],[-103.38928440667223,20.761777261272073],[-103.3912041245494,20.763583732768893],[-103.39216398348799,20.762680497020483],[-103.39216398348799,20.760874025523663],[-103.39312384242658,20.759970789775252],[-103.39696327818092,20.759970789775252],[-103.3979231371195,20.759067554026842],[-103.39600341924233,20.75726108253002],[-103.39600341924233,20.7554546110332],[-103.39696327818092,20.75455137528479],[-103.39888299605809,20.75635784678161],[-103.40080271393526,20.75635784678161],[-103.4056020086282,20.75184166803956],[-103.4056020086282,20.751008935563732],[-103.40596280782484,20.751008935563732],[-103.40788215817884,20.7492024578969],[-103.41172085888684,20.752815413230564],[-103.41364020924084,20.752815413230564],[-103.41459988441784,20.75371865206398],[-103.41459988441784,20.755525129730813],[-103.41555955959484,20.75642836856423],[-103.41642282003443,20.755615874533884],[-103.41747890994884,20.754621890897397],[-103.42323696101084,20.754621890897397],[-103.42419663618784,20.75371865206398],[-103.42254088881542,20.75216027547892],[-103.42287946952274,20.75184166803956],[-103.42227728583384,20.75127500786372],[-103.42227728583384,20.748299219063483],[-103.42035793547984,20.74649274139665],[-103.42035793547984,20.743375624888746],[-103.42095975164557,20.742809310555458],[-103.42035793547984,20.74224299622217],[-103.42035793547984,20.741073308396153],[-103.42131761065684,20.740170069562737],[-103.42515631136484,20.740170069562737],[-103.42611598654184,20.73926683072932],[-103.42611598654184,20.737460353062488],[-103.42707566171885,20.736557114229072],[-103.42899501207285,20.736557114229072],[-103.42995468724985,20.737460353062488],[-103.42995468724985,20.741073308396153],[-103.43091436242685,20.74197654722957],[-103.43187403760385,20.741073308396153],[-103.43187403760385,20.73926683072932],[-103.43379338795785,20.737460353062488],[-103.43379338795785,20.733847397728823],[-103.43571273831185,20.73204092006199],[-103.43571273831185,20.726621487061493],[-103.43667241348885,20.725718248228077],[-103.43859176384285,20.725718248228077],[-103.43955143901985,20.72481500939466],[-103.43955143901985,20.723008531727828],[-103.44051111419685,20.722105292894412],[-103.44147078937385,20.723008531727828],[-103.44147078937385,20.72481500939466],[-103.44243046455085,20.725718248228077],[-103.44530949008185,20.723008531727828],[-103.44530949008185,20.721202054060996],[-103.44339013972785,20.719395576394163],[-103.44530949008185,20.71758909872733],[-103.44339013972785,20.715782621060498],[-103.44434981490485,20.714879382227082],[-103.44626916525885,20.714879382227082],[-103.44818851561286,20.71307290456025],[-103.45586591702886,20.71307290456025],[-103.45682559220586,20.712169665726833],[-103.45586591702886,20.711266426893417],[-103.45394656667486,20.711266426893417],[-103.45298689149786,20.71036318806],[-103.45298689149786,20.708556710393168],[-103.45490624185186,20.706750232726336],[-103.45490624185186,20.704943755059503],[-103.4549247003889,20.704926382027608],[-103.45692016679095,20.70680478133727],[-103.45692016679095,20.71041774598416],[-103.45787970046513,20.711320987145882],[-103.46075830148766,20.708611263660714],[-103.4588392341393,20.70680478133727],[-103.45979876781348,20.705901540175546],[-103.46171783516183,20.705901540175546],[-103.46459643618437,20.708611263660714],[-103.46459643618437,20.71041774598416],[-103.46939410455525,20.714933951792773],[-103.47035363822943,20.71403071063105],[-103.46651550353272,20.71041774598416],[-103.4674750372069,20.709514504822437],[-103.46939410455525,20.709514504822437],[-103.47035363822943,20.708611263660714],[-103.46939410455525,20.70770802249899],[-103.4674750372069,20.70770802249899],[-103.46267736883601,20.703191816690378],[-103.46368642528728,20.702241958081128],[-103.46459643618437,20.701385334366933],[-103.46267736883601,20.699578852043487],[-103.46459643618437,20.69777236972004],[-103.46171783516183,20.695062646234874],[-103.46075830148766,20.695965887396596],[-103.46267736883601,20.69777236972004],[-103.46171783516183,20.698675610881764],[-103.45979876781348,20.698675610881764],[-103.45692016679095,20.695965887396596],[-103.45692016679095,20.688739958102815],[-103.45682559220586,20.68865093188059],[-103.45682559220586,20.685072500724345],[-103.45874494255986,20.683266023057513],[-103.45586591702886,20.680556306557264],[-103.45490624185186,20.68145954539068],[-103.45490624185186,20.686878978391178],[-103.45202721632086,20.689588694891427],[-103.45010786596686,20.689588694891427],[-103.44914819078986,20.68868545605801],[-103.44914819078986,20.687023567612343],[-103.44924389739754,20.68693347577937],[-103.44924389739754,20.68332051113248],[-103.45116296474589,20.681514028809033],[-103.45116296474589,20.679707546485588],[-103.446365296375,20.675191340676975],[-103.44444622902665,20.67699782300042],[-103.4425271616783,20.67699782300042],[-103.44218124046647,20.676672195786228],[-103.4427712680772,20.67611674766522],[-103.44181179441512,20.67521350545576],[-103.44063164047967,20.67521350545576],[-103.43964856065577,20.674288099515252],[-103.43964856065577,20.672481617191806],[-103.4394226647104,20.67226897377802],[-103.43989284709096,20.67182634717028],[-103.44085232075304,20.670697294408455],[-103.44085232075304,20.667084325570613],[-103.44181179441512,20.666181083361153],[-103.44373074173927,20.666181083361153],[-103.44469021540135,20.667084325570613],[-103.4427712680772,20.668890809989534],[-103.44373074173927,20.669794052198995],[-103.44564968906343,20.667987567780074],[-103.44756863638759,20.667987567780074],[-103.44852811004966,20.668890809989534],[-103.44852811004966,20.670008975139353],[-103.44847993110307,20.670008975139353],[-103.44752101821359,20.67091222666204],[-103.44847993110307,20.671815478184726],[-103.4497159064917,20.671815478184726],[-103.45044705737382,20.672503778827377],[-103.45044705737382,20.674310263246298],[-103.4514065310359,20.67521350545576],[-103.45524442568421,20.67521350545576],[-103.4556846599746,20.67446607685402],[-103.45556674191721,20.673049384542082],[-103.45519232132938,20.672718729707412],[-103.45398327492296,20.670616100619803],[-103.45327449555043,20.669105723616667],[-103.45231558266096,20.66820247209398],[-103.45207351776018,20.667859528927636],[-103.45150730835012,20.666665298297488],[-103.45044705737382,20.66347135673277],[-103.4514065310359,20.66256811452331],[-103.45332547836006,20.66256811452331],[-103.45428495202214,20.66166487231385],[-103.45428495202214,20.656245419057086],[-103.45620389934629,20.654438934638165],[-103.45620389934629,20.652632450219244],[-103.45812284667045,20.650825965800323],[-103.45812284667045,20.6490194813814],[-103.45716337300837,20.64811623917194],[-103.45332547836006,20.651729208009783],[-103.44948758371174,20.64811623917194],[-103.44564968906343,20.64811623917194],[-103.4436853666557,20.646267038947094],[-103.4436853666557,20.645621184026822],[-103.4427712680772,20.64476014550916],[-103.4427712680772,20.643600028124638],[-103.44181179441512,20.642696785915177],[-103.44176754087675,20.642696785915177],[-103.44176754087675,20.642008177936077],[-103.4412548179651,20.640556297469555],[-103.44085232075304,20.639987059286796],[-103.44027179954756,20.638966087922167],[-103.43973306343506,20.638047793633607],[-103.43913660559619,20.637111487867358],[-103.43898268099262,20.636535296839288],[-103.438482426031,20.634698673373872],[-103.43889080220833,20.6338789142319],[-103.44080862798728,20.6338789142319],[-103.44176754087675,20.632975662709214],[-103.44176754087675,20.63116915966384],[-103.43793188931886,20.627556153573096],[-103.43793188931886,20.627483821011303],[-103.43793188931886,20.625749650527723],[-103.44080862798728,20.623039895959664],[-103.44272645376623,20.623039895959664],[-103.44656210532412,20.61942688986892],[-103.45231558266096,20.61942688986892],[-103.45327449555043,20.618523638346232],[-103.45135666977149,20.61671713530086],[-103.45135666977149,20.614910632255487],[-103.45039775688201,20.6140073807328],[-103.44464427954517,20.6140073807328],[-103.4436853666557,20.613104129210114],[-103.4436853666557,20.611297626164742],[-103.44464427954517,20.610394374642055],[-103.44656210532412,20.612200877687428],[-103.44847993110307,20.612200877687428],[-103.45039775688201,20.610394374642055],[-103.45231558266096,20.610394374642055],[-103.45519232132938,20.607684620073996],[-103.45519232132938,20.605878117028624],[-103.45711014710832,20.60407161398325],[-103.45615123421885,20.603168362460565],[-103.45039775688201,20.603168362460565],[-103.44943884399254,20.60226511093788],[-103.45135666977149,20.600458607892506],[-103.45135666977149,20.595039098756388],[-103.45231558266096,20.5941358472337],[-103.45615123421885,20.5941358472337],[-103.45711014710832,20.593232595711015],[-103.45519232132938,20.591426092665642],[-103.45519232132938,20.586006583529525],[-103.45711014710832,20.584200080484152],[-103.45711014710832,20.58239357743878],[-103.45519232132938,20.580587074393407],[-103.45519232132938,20.578780571348034],[-103.45615123421885,20.577877319825348],[-103.4580690599978,20.577877319825348],[-103.46286362444516,20.573361062211916],[-103.46286362444516,20.571554559166543],[-103.46478145022411,20.56974805612117],[-103.46478145022411,20.567941553075798],[-103.46382253733464,20.56703830155311],[-103.46190471155569,20.56703830155311],[-103.46094579866622,20.566135050030425],[-103.46190471155569,20.56523179850774],[-103.46382253733464,20.56523179850774],[-103.46478145022411,20.564328546985053],[-103.46478145022411,20.56252204393968],[-103.46286362444516,20.560715540894307],[-103.46382253733464,20.55981228937162],[-103.46574036311358,20.55981228937162],[-103.46669927600306,20.558909037848935],[-103.46669927600306,20.557102534803562],[-103.468617101782,20.55529603175819],[-103.468617101782,20.553489528712817],[-103.46765818889253,20.55258627719013],[-103.46669927600306,20.553489528712817],[-103.46669927600306,20.55529603175819],[-103.46382253733464,20.558005786326248],[-103.46190471155569,20.558005786326248],[-103.45998688577674,20.556199283280876],[-103.4580690599978,20.556199283280876],[-103.45711014710832,20.557102534803562],[-103.45902797288727,20.558909037848935],[-103.45902797288727,20.560715540894307],[-103.45711014710832,20.56252204393968],[-103.45711014710832,20.564328546985053],[-103.45902797288727,20.566135050030425],[-103.45615123421885,20.568844804598484],[-103.45519232132938,20.567941553075798],[-103.45519232132938,20.566135050030425],[-103.4542334084399,20.56523179850774],[-103.44656210532412,20.56523179850774],[-103.44464427954517,20.563425295462366],[-103.4436853666557,20.564328546985053],[-103.44847993110307,20.568844804598484],[-103.45039775688201,20.568844804598484],[-103.45327449555043,20.571554559166543],[-103.45135666977149,20.573361062211916],[-103.45135666977149,20.57516756525729],[-103.45039775688201,20.576070816779975],[-103.44656210532412,20.576070816779975],[-103.44272645376623,20.57245781068923],[-103.44080862798728,20.57245781068923],[-103.43984971509781,20.573361062211916],[-103.44176754087675,20.57516756525729],[-103.43984971509781,20.57697406830266],[-103.44176754087675,20.578780571348034],[-103.44176754087675,20.580587074393407],[-103.43793188931886,20.584200080484152],[-103.43793188931886,20.586006583529525],[-103.43697297642939,20.58690983505221],[-103.43121949909255,20.58690983505221],[-103.42354819597676,20.5941358472337],[-103.42163037019782,20.5941358472337],[-103.41971254441887,20.59232934418833],[-103.41587689286098,20.595942350279074],[-103.41395906708203,20.595942350279074],[-103.41204124130309,20.597748853324447],[-103.41012341552414,20.597748853324447],[-103.40916450263467,20.59684560180176],[-103.41300015419256,20.593232595711015],[-103.41204124130309,20.59232934418833],[-103.41012341552414,20.5941358472337],[-103.4082055897452,20.5941358472337],[-103.40628776396625,20.595942350279074],[-103.40314955255081,20.595942350279074],[-103.40245211240835,20.595942350279074],[-103.40183517226251,20.595361221239866],[-103.40183517226251,20.593216319102794],[-103.40279412386008,20.592313068220392],[-103.40578771719949,20.592313068220392],[-103.40662993025035,20.592313068220392],[-103.40950678504305,20.589603315573186],[-103.40854783344548,20.588700064690784],[-103.40841404880811,20.588700064690784],[-103.40662993025035,20.588700064690784],[-103.40567097865278,20.58779681380838],[-103.40567097865278,20.585990312043577],[-103.40950678504305,20.58237730851397],[-103.40854783344548,20.581474057631567],[-103.40662993025035,20.581474057631567],[-103.40375307545764,20.57876430498436],[-103.40567097865278,20.576957803219557],[-103.40567097865278,20.57334479968995],[-103.40471202705521,20.572441548807546],[-103.40375307545764,20.57334479968995],[-103.40375307545764,20.576957803219557],[-103.40279412386008,20.57786105410196],[-103.40087622066494,20.57786105410196],[-103.39991726906737,20.576957803219557],[-103.39991726906737,20.575151301454753],[-103.40183517226251,20.57334479968995],[-103.40183517226251,20.567925294395536],[-103.40087622066494,20.567022043513134],[-103.3989583174698,20.56882854527794],[-103.39704041427467,20.56882854527794],[-103.3960814626771,20.567925294395536],[-103.3960814626771,20.564312290865928],[-103.39799936587224,20.562505789101124],[-103.3960814626771,20.56069928733632],[-103.3960814626771,20.558892785571516],[-103.39991726906737,20.555279782041907],[-103.39991726906737,20.5516667785123],[-103.3989583174698,20.550763527629897],[-103.39224565628683,20.55708628380671],[-103.39224565628683,20.558892785571516],[-103.39128670468926,20.559796036453918],[-103.3903277530917,20.558892785571516],[-103.3903277530917,20.55708628380671],[-103.38936880149413,20.55618303292431],[-103.38840984989656,20.55708628380671],[-103.38840984989656,20.562505789101124],[-103.387450898299,20.563409039983526],[-103.38553299510386,20.563409039983526],[-103.38457404350629,20.564312290865928],[-103.38649194670143,20.566118792630732],[-103.38649194670143,20.567925294395536],[-103.38553299510386,20.56882854527794],[-103.38361509190872,20.567022043513134],[-103.38169718871359,20.56882854527794],[-103.38073823711602,20.567925294395536],[-103.38073823711602,20.566118792630732],[-103.37977928551845,20.56521554174833],[-103.37594347912818,20.56521554174833],[-103.37402557593305,20.563409039983526],[-103.37210767273791,20.563409039983526],[-103.36923081794521,20.56069928733632],[-103.36923081794521,20.55708628380671],[-103.36827186634764,20.55618303292431],[-103.36539501155494,20.558892785571516],[-103.36539501155494,20.56069928733632],[-103.3634771083598,20.562505789101124],[-103.3634771083598,20.564312290865928],[-103.36251815676223,20.56521554174833],[-103.3606002535671,20.56521554174833],[-103.35964130196953,20.564312290865928],[-103.35964130196953,20.562505789101124],[-103.35676444717683,20.559796036453918],[-103.35292864078656,20.563409039983526],[-103.35101073759142,20.563409039983526],[-103.35005178599386,20.564312290865928],[-103.35005178599386,20.566118792630732],[-103.35196968918899,20.567925294395536],[-103.35101073759142,20.56882854527794],[-103.34717493120115,20.56882854527794],[-103.34525702800602,20.570635047042742],[-103.34333912481088,20.570635047042742],[-103.34238017321331,20.56973179616034],[-103.34238017321331,20.567925294395536],[-103.34142122161575,20.567022043513134],[-103.33950331842061,20.567022043513134],[-103.33758541522548,20.56882854527794],[-103.33566751203034,20.56882854527794],[-103.33470856043277,20.567925294395536],[-103.33470856043277,20.566118792630732],[-103.3337496088352,20.56521554174833],[-103.33279065723764,20.566118792630732],[-103.33279065723764,20.567925294395536],[-103.33133910723974,20.56929253109421],[-103.3279958992498,20.572441548807546],[-103.32607799605466,20.572441548807546],[-103.32320114126196,20.575151301454753],[-103.32320114126196,20.57876430498436],[-103.32416009285953,20.579667555866763],[-103.32607799605466,20.57786105410196],[-103.3279958992498,20.57786105410196],[-103.32919458874676,20.576957803219557],[-103.32991380244493,20.579441743146162],[-103.32871511294798,20.580570806749165],[-103.32607799605466,20.581474057631567],[-103.32416009285953,20.58328055939637],[-103.3222421896644,20.581474057631567],[-103.32128323806683,20.58237730851397],[-103.3222421896644,20.58328055939637],[-103.3222421896644,20.585087061161175],[-103.32104350016743,20.585990312043577],[-103.32032428646926,20.58666775020538],[-103.31840638327412,20.588700064690784],[-103.31648848007899,20.590506566455588],[-103.31457057688385,20.590506566455588],[-103.31361162528628,20.59140981733799],[-103.31361162528628,20.593216319102794],[-103.31648848007899,20.59592607175],[-103.31840638327412,20.594119569985196],[-103.32032428646926,20.594119569985196],[-103.32128323806683,20.595022820867598],[-103.32128323806683,20.596829322632402],[-103.31936533487169,20.598635824397206],[-103.32032428646926,20.59953907527961],[-103.32149697384469,20.59953907527961],[-103.3233186705038,20.601254519016948],[-103.32369109274474,20.60090381880697],[-103.32416009285953,20.601345577044412],[-103.3251190444571,20.60044232616201],[-103.3251190444571,20.599559154309752],[-103.3252370567061,20.5994480252848],[-103.3271554429084,20.5994480252848],[-103.32811463600956,20.598544778418727],[-103.32811463600956,20.594931790954433],[-103.32533371212854,20.592313068220392],[-103.32607799605466,20.592313068220392],[-103.32703694765223,20.59140981733799],[-103.32703694765223,20.589603315573186],[-103.3279958992498,20.588700064690784],[-103.32895485084737,20.589603315573186],[-103.32895485084737,20.593216319102794],[-103.3337496088352,20.597732573514804],[-103.33662646362791,20.595022820867598],[-103.33662646362791,20.593216319102794],[-103.33854436682304,20.59140981733799],[-103.33854436682304,20.589603315573186],[-103.34046227001818,20.58779681380838],[-103.34046227001818,20.587236220148938],[-103.34046227001818,20.585990312043577],[-103.34333912481088,20.58328055939637],[-103.34525702800602,20.58328055939637],[-103.34717493120115,20.581474057631567],[-103.34813388279872,20.58237730851397],[-103.34813388279872,20.58779681380838],[-103.34621597960358,20.589603315573186],[-103.34621597960358,20.593216319102794],[-103.34909283439629,20.59592607175],[-103.35005178599386,20.595022820867598],[-103.35005178599386,20.593216319102794],[-103.35101073759142,20.592313068220392],[-103.35676444717683,20.592313068220392],[-103.35868235037196,20.590506566455588],[-103.3606002535671,20.590506566455588],[-103.36155920516467,20.589603315573186],[-103.36155920516467,20.585990312043577],[-103.36251815676223,20.585087061161175],[-103.36443605995737,20.58689356292598],[-103.36827186634764,20.58328055939637],[-103.37210767273791,20.58689356292598],[-103.37402557593305,20.585087061161175],[-103.37498452753061,20.585990312043577],[-103.37498452753061,20.589603315573186],[-103.37690243072575,20.59140981733799],[-103.37690243072575,20.595022820867598],[-103.37114872114034,20.60044232616201],[-103.37114872114034,20.602248827926815],[-103.36923081794521,20.60405532969162],[-103.37402557593305,20.60857158410363],[-103.37594347912818,20.60857158410363],[-103.37786138232332,20.606765082338825],[-103.37977928551845,20.606765082338825],[-103.38169718871359,20.60857158410363],[-103.38361509190872,20.606765082338825],[-103.38553299510386,20.606765082338825],[-103.387450898299,20.60495858057402],[-103.39128670468926,20.60495858057402],[-103.39416355948197,20.607668333221227],[-103.39416355948197,20.608304241126458],[-103.39416355948197,20.609169292325745],[-103.3938218964031,20.60949112311937],[-103.39416355948197,20.609812953912993],[-103.39416355948197,20.611281336750835],[-103.39512251107953,20.612184587633237],[-103.3964361530076,20.612184587633237],[-103.39556081040064,20.613008903339505],[-103.39411851699481,20.615134850521233],[-103.39160302676787,20.61829856247153],[-103.39076500874944,20.619331635069102],[-103.3898058484192,20.620234882459044],[-103.38963002504867,20.620645485826277],[-103.38895119208671,20.621538396238225],[-103.38781368820453,20.622877752037947],[-103.38742840463154,20.623427227931963],[-103.38684130585362,20.62413124102293],[-103.38656610330148,20.62462919953614],[-103.38623586023891,20.62502413099189],[-103.38596920709824,20.6256543667987],[-103.38596920709824,20.625668029617245],[-103.38511023996398,20.62647674040636],[-103.38319149031304,20.62467025272781],[-103.3812727406621,20.62467025272781],[-103.38031336583663,20.623767008888535],[-103.38031336583663,20.621960521209985],[-103.37935399101116,20.62105727737071],[-103.37743524136022,20.62105727737071],[-103.37359774205834,20.61744430201361],[-103.36976024275646,20.61744430201361],[-103.36784149310552,20.61925078969216],[-103.36592274345458,20.61925078969216],[-103.3649633686291,20.620154033531435],[-103.3649633686291,20.621960521209985],[-103.3620852441527,20.62467025272781],[-103.35441024554893,20.62467025272781],[-103.352491495898,20.62647674040636],[-103.34865399659611,20.62647674040636],[-103.34769462177064,20.627379984245636],[-103.34769462177064,20.62835192499915],[-103.34633930493146,20.62835192499915],[-103.34509040791468,20.627175871590204],[-103.34170436563542,20.62398732480702],[-103.34193837281782,20.623767008888535],[-103.3415433394257,20.623395088062313],[-103.3415433394257,20.622029196936637],[-103.33962495322339,20.62022270320449],[-103.33962495322339,20.61480322200805],[-103.33866576012224,20.613899975141976],[-103.33674737391993,20.613899975141976],[-103.33578818081878,20.612996728275903],[-103.33770656702109,20.611190234543756],[-103.33770656702109,20.605770753347315],[-103.33674737391993,20.60486750648124],[-103.33099221531302,20.60486750648124],[-103.32907382911071,20.603061012749095],[-103.3271554429084,20.603061012749095],[-103.3252370567061,20.60486750648124],[-103.3233186705038,20.60486750648124],[-103.32140028430149,20.603061012749095],[-103.31948189809918,20.603061012749095],[-103.31756351189688,20.601254519016948],[-103.31180835328996,20.601254519016948],[-103.30988996708766,20.603061012749095],[-103.30797158088535,20.603061012749095],[-103.30605319468305,20.60486750648124],[-103.30221642227843,20.60486750648124],[-103.30029803607613,20.60667400021339],[-103.29454287746921,20.60667400021339],[-103.2926244912669,20.608480493945535],[-103.2887877188623,20.608480493945535],[-103.28686933265999,20.60667400021339],[-103.28495094645768,20.60667400021339],[-103.28303256025538,20.60486750648124],[-103.28111417405307,20.60486750648124],[-103.27919578785077,20.60667400021339],[-103.27535901544616,20.60667400021339],[-103.274399822345,20.607577247079462],[-103.274399822345,20.60938374081161],[-103.2724814361427,20.611190234543756],[-103.27344062924385,20.61209348140983],[-103.27535901544616,20.610286987677682],[-103.27727740164846,20.610286987677682],[-103.27823659474961,20.611190234543756],[-103.27823659474961,20.612996728275903],[-103.27727740164846,20.613899975141976],[-103.27152224304155,20.613899975141976],[-103.26960385683924,20.615706468874123],[-103.26768547063693,20.615706468874123],[-103.26672627753578,20.616609715740196],[-103.26960385683924,20.619319456338417],[-103.27152224304155,20.619319456338417],[-103.27344062924385,20.621125950070564],[-103.27535901544616,20.619319456338417],[-103.27631820854731,20.62022270320449],[-103.27631820854731,20.62564218440093],[-103.2724814361427,20.629255171865225],[-103.274399822345,20.63106166559737],[-103.274399822345,20.636481146793813],[-103.27631820854731,20.63828764052596],[-103.274399822345,20.640094134258106],[-103.27631820854731,20.641900627990253],[-103.27631820854731,20.6437071217224],[-103.27687641331262,20.644232768439714],[-103.27727740164846,20.644610368588474],[-103.27919578785077,20.644610368588474],[-103.28015498095192,20.645513615454547],[-103.27823659474961,20.647320109186694],[-103.27919578785077,20.648223356052767],[-103.28111417405307,20.64641686232062],[-103.28303256025538,20.648223356052767],[-103.28495094645768,20.64641686232062],[-103.28686933265999,20.64641686232062],[-103.28719108956534,20.646113872321997],[-103.28838411823381,20.647237055003643],[-103.28838411823381,20.649043541401625],[-103.28934353031218,20.649946784600616],[-103.29126235446893,20.648140298202634],[-103.2922217665473,20.649043541401625],[-103.2922217665473,20.650850027799606],[-103.29030294239055,20.652656514197588],[-103.2922217665473,20.65446300059557],[-103.2922217665473,20.659882459789515],[-103.29030294239055,20.661688946187496],[-103.29126235446893,20.662592189386487],[-103.29510000278242,20.662592189386487],[-103.30181588733103,20.668914891779423],[-103.30181588733103,20.67174841402816],[-103.30181588733103,20.672527864575386],[-103.30648451358432,20.6769231656217],[-103.3063010253245,20.6769231656217],[-103.30438156519085,20.67872964142589],[-103.30054264492355,20.67872964142589],[-103.2986231847899,20.680536117230076],[-103.2947842645226,20.680536117230076],[-103.29190507432213,20.683245830936357],[-103.29190507432213,20.685052306740545],[-103.28806615405483,20.68866525834892],[-103.28902588412166,20.689568496251013],[-103.2909453442553,20.687762020446826],[-103.29190507432213,20.68866525834892],[-103.29190507432213,20.690471734153107],[-103.28806615405483,20.69408468576148],[-103.28998561418848,20.69589116156567],[-103.28998561418848,20.697697637369856],[-103.29190507432213,20.699504113174044],[-103.29190507432213,20.704923540586606],[-103.29286480438896,20.7058267784887],[-103.2947842645226,20.7058267784887],[-103.29670372465625,20.707633254292887],[-103.2986231847899,20.7058267784887],[-103.29958291485673,20.706730016390793],[-103.29958291485673,20.70853649219498],[-103.30150237499038,20.710342967999168],[-103.30150237499038,20.712149443803355],[-103.3024621050572,20.71305268170545],[-103.30438156519085,20.71305268170545],[-103.3063010253245,20.714859157509636],[-103.31589832599275,20.714859157509636],[-103.31685805605957,20.713955919607542],[-103.31685805605957,20.712149443803355],[-103.3178177861264,20.71124620590126],[-103.32083947903183,20.71124620590126],[-103.3216567063937,20.71124620590126],[-103.32493904570583,20.70815707347045],[-103.32493904570583,20.708506528288126],[-103.32685865589883,20.71031300164759],[-103.32685865589883,20.712119475007057],[-103.33355584091122,20.718421945348382],[-103.3297731524799,20.718421945348382],[-103.32785343460273,20.720228416845202],[-103.32593371672556,20.718421945348382],[-103.32209428097121,20.718421945348382],[-103.32017456309404,20.720228416845202],[-103.31825484521687,20.720228416845202],[-103.31729498627828,20.721131652593613],[-103.31825484521687,20.722034888342023],[-103.32017456309404,20.722034888342023],[-103.32251067089886,20.721191352294912],[-103.32387482228617,20.72107226742287],[-103.32593371672556,20.722034888342023],[-103.32922229572439,20.72307968560871],[-103.33158682479572,20.72406637292966],[-103.33298735355336,20.72440660844628],[-103.33435150494067,20.72501903044985],[-103.33457244717283,20.728357538580894],[-103.33265272929566,20.730164010077715],[-103.33361258823425,20.731067245826125],[-103.33553230611142,20.731067245826125],[-103.33745202398859,20.729260774329305],[-103.33937174186576,20.729260774329305],[-103.34033160080435,20.730164010077715],[-103.34033558235966,20.73114311425158],[-103.34033160080435,20.731970481574535],[-103.34129145974293,20.732873717322946],[-103.3432111776201,20.732873717322946],[-103.34513089549728,20.731067245826125],[-103.35153981242071,20.731602410550433],[-103.3508900491288,20.732873717322946],[-103.34993019019021,20.733776953071356],[-103.34993019019021,20.739196367561817],[-103.35115150549446,20.74034563606215]]]},"properties":{"id_oficina":10,"nombre_oficina":"Quer\u00e9taro","fecha_creacion":"2025-10-15 09:45:00.000000"}},{"type":"Feature","geometry":{"type":"Polygon","coordinates":[[[-100.3602141503361,20.606353562736864],[-100.3602141503361,20.60764797963202],[-100.35637811716879,20.611260979436338],[-100.35829613375245,20.613067479338497],[-100.35541910887696,20.615777229191735],[-100.3535010922933,20.615777229191735],[-100.35254208400147,20.616680479142815],[-100.35541910887696,20.619390228996053],[-100.35925514204428,20.615777229191735],[-100.36117315862793,20.615777229191735],[-100.3630911752116,20.617583729093894],[-100.36500919179525,20.615777229191735],[-100.36692720837891,20.615777229191735],[-100.36884522496257,20.617583729093894],[-100.37076324154623,20.617583729093894],[-100.37268125812989,20.619390228996053],[-100.3765172912972,20.619390228996053],[-100.3793943161727,20.622099978849292],[-100.37843530788086,20.62300322880037],[-100.37268125812989,20.62300322880037],[-100.37076324154623,20.62480972870253],[-100.36692720837891,20.62480972870253],[-100.36405018350342,20.62751947855577],[-100.36405018350342,20.629325978457928],[-100.36500919179525,20.630229228409007],[-100.36692720837891,20.628422728506848],[-100.36884522496257,20.630229228409007],[-100.37076324154623,20.628422728506848],[-100.37268125812989,20.628422728506848],[-100.37459927471355,20.62661622860469],[-100.3765172912972,20.62661622860469],[-100.38035332446452,20.62300322880037],[-100.38131233275635,20.62390647875145],[-100.38131233275635,20.62751947855577],[-100.3793943161727,20.629325978457928],[-100.38227134104818,20.632035728311166],[-100.3861073742155,20.628422728506848],[-100.38802539079916,20.628422728506848],[-100.39090241567465,20.631132478360087],[-100.39090241567465,20.632938978262246],[-100.39186142396647,20.633842228213325],[-100.39377944055013,20.633842228213325],[-100.39473844884196,20.634745478164405],[-100.39473844884196,20.64091989722553],[-100.39473844884196,20.64197147777304],[-100.39569745713379,20.64287472772412],[-100.39665646542562,20.64197147777304],[-100.39665646542562,20.640890682135698],[-100.39665646542562,20.638358477968723],[-100.39761547371745,20.637455228017643],[-100.39953349030111,20.637455228017643],[-100.4024105151766,20.634745478164405],[-100.4024105151766,20.632938978262246],[-100.40624654834392,20.629325978457928],[-100.40624654834392,20.62751947855577],[-100.40720555663574,20.62661622860469],[-100.4091235732194,20.628422728506848],[-100.40920672293423,20.628344413255054],[-100.40923627081793,20.628372239356395],[-100.41107126156874,20.626644175204436],[-100.41200059809489,20.62751947855577],[-100.41200059809489,20.629325978457928],[-100.41487762297038,20.632035728311166],[-100.41614809069246,20.632035728311166],[-100.41679563955404,20.632035728311166],[-100.4187136561377,20.633842228213325],[-100.42063167272136,20.632035728311166],[-100.4217050599982,20.632035728311166],[-100.4217050599982,20.632888478343375],[-100.42350869759684,20.634587016320186],[-100.42350869759684,20.634745478164405],[-100.4254267141805,20.636551978066564],[-100.4254267141805,20.638358477968723],[-100.42554161051521,20.638466694039],[-100.42554161051521,20.640114460722543],[-100.4236233352567,20.641920956317335],[-100.42554161051521,20.643727451912127],[-100.42554161051521,20.64553394750692],[-100.4236233352567,20.64734044310171],[-100.4236233352567,20.649146938696504],[-100.42554161051521,20.650953434291296],[-100.4217050599982,20.65456642548088],[-100.4217050599982,20.656372921075672],[-100.4197867847397,20.658179416670464],[-100.42060418395239,20.658949185279198],[-100.41719843447208,20.658949185279198],[-100.4165212017357,20.658924344279672],[-100.41587248796213,20.654194731661676],[-100.4185754620187,20.65295539706764],[-100.41884575942434,20.65100785086176],[-100.41616981510835,20.65022376677324],[-100.416440112514,20.64814971839842],[-100.40952252596617,20.64811028225813],[-100.40856303740293,20.64720704033971],[-100.40952252596617,20.646303798421286],[-100.41039602292078,20.646303798421286],[-100.41144150309265,20.646303798421286],[-100.41240099165589,20.645400556502864],[-100.41144150309265,20.64449731458444],[-100.40952370449484,20.64449731458444],[-100.40952252596617,20.64449731458444],[-100.40568457171321,20.64811028225813],[-100.40376559458673,20.64811028225813],[-100.40184661746025,20.649916766094975],[-100.39992764033377,20.649916766094975],[-100.39608968608081,20.646303798421286],[-100.39417070895433,20.646303798421286],[-100.39225173182786,20.64449731458444],[-100.39129224326462,20.645400556502864],[-100.3932112203911,20.64720704033971],[-100.3932112203911,20.649013524176553],[-100.39225173182786,20.649916766094975],[-100.39033275470138,20.649916766094975],[-100.38937326613814,20.649013524176553],[-100.38937326613814,20.64720704033971],[-100.38745428901166,20.645400556502864],[-100.38745428901166,20.64359407266602],[-100.38477480368324,20.641071662747713],[-100.3836163347587,20.63998110499233],[-100.3836163347587,20.638174621155486],[-100.38265684619546,20.637271379237063],[-100.37689991481602,20.637271379237063],[-100.37594042625278,20.638174621155486],[-100.37594042625278,20.63998110499233],[-100.37461760935693,20.641226376396812],[-100.37018349487334,20.645400556502864],[-100.37018349487334,20.650820008013397],[-100.3692240063101,20.65172324993182],[-100.36730502918363,20.65172324993182],[-100.36634554062039,20.652626491850242],[-100.36634554062039,20.654432975687087],[-100.36538605205715,20.65533621760551],[-100.36346707493067,20.65533621760551],[-100.36154809780419,20.653529733768664],[-100.35962912067771,20.653529733768664],[-100.35866963211447,20.652626491850242],[-100.35866963211447,20.64720704033971],[-100.35771014355123,20.646303798421286],[-100.35675065498799,20.64720704033971],[-100.35675065498799,20.649013524176553],[-100.35483167786151,20.650820008013397],[-100.35483167786151,20.652626491850242],[-100.35387218929827,20.653529733768664],[-100.35099372360855,20.650820008013397],[-100.35099372360855,20.649013524176553],[-100.35291270073503,20.64720704033971],[-100.3519532121718,20.646303798421286],[-100.35003423504531,20.646303798421286],[-100.3471557693556,20.64359407266602],[-100.3471557693556,20.641787588829175],[-100.34700637137077,20.641646948776135],[-100.34619628079236,20.640884346910752],[-100.34535954380343,20.64167203313449],[-100.34331781510264,20.64359407266602],[-100.34331781510264,20.645400556502864],[-100.34043934941292,20.64811028225813],[-100.33852037228644,20.64811028225813],[-100.3375608837232,20.649013524176553],[-100.3375608837232,20.650820008013397],[-100.33947986084968,20.652626491850242],[-100.33947986084968,20.65623945952393],[-100.33852037228644,20.657142701442353],[-100.33660139515996,20.657142701442353],[-100.33372292947024,20.65985242719762],[-100.33372292947024,20.661658911034465],[-100.33660139515996,20.66436863678973],[-100.33852037228644,20.66436863678973],[-100.33947986084968,20.66346539487131],[-100.33947986084968,20.661658911034465],[-100.34043934941292,20.660755669116043],[-100.34427730366588,20.66436863678973],[-100.34811525791883,20.660755669116043],[-100.34907474648207,20.661658911034465],[-100.34907474648207,20.66346539487131],[-100.35003423504531,20.66436863678973],[-100.3519532121718,20.66436863678973],[-100.35483167786151,20.661658911034465],[-100.35483167786151,20.65985242719762],[-100.35579116642475,20.658949185279198],[-100.35962912067771,20.658949185279198],[-100.36058860924095,20.65985242719762],[-100.36058860924095,20.661658911034465],[-100.35675065498799,20.665271878708154],[-100.35866963211447,20.667078362545],[-100.35675065498799,20.668884846381843],[-100.35771014355123,20.669788088300265],[-100.35962912067771,20.669788088300265],[-100.36058860924095,20.670691330218688],[-100.36058860924095,20.674304297892377],[-100.36154809780419,20.6752075398108],[-100.36250758636743,20.674304297892377],[-100.36250758636743,20.670691330218688],[-100.36346707493067,20.669788088300265],[-100.36730502918363,20.669788088300265],[-100.3692240063101,20.67159457213711],[-100.37210247199982,20.668884846381843],[-100.37210247199982,20.667078362545],[-100.37306196056306,20.666175120626576],[-100.37689991481602,20.666175120626576],[-100.38169735763222,20.670691330218688],[-100.38169735763222,20.672497814055532],[-100.38265684619546,20.673401055973954],[-100.3884137775749,20.673401055973954],[-100.38937326613814,20.674304297892377],[-100.38937326613814,20.67611078172922],[-100.39225173182786,20.678820507484488],[-100.39800866320729,20.678820507484488],[-100.39992764033377,20.677014023647644],[-100.40184661746025,20.678820507484488],[-100.40376559458673,20.678820507484488],[-100.40568457171321,20.680626991321333],[-100.40760354883969,20.678820507484488],[-100.42295536585152,20.678820507484488],[-100.424874342978,20.680626991321333],[-100.42679332010448,20.680626991321333],[-100.4271173844715,20.680932058553786],[-100.42775280866772,20.681530233239755],[-100.42775280866772,20.682247958236626],[-100.42775280866772,20.6833367170766],[-100.42871672063092,20.684244123088703],[-100.4296717857942,20.685143200913444],[-100.4296717857942,20.686221967106803],[-100.4296717857942,20.690562652423978],[-100.42871229723096,20.6914658943424],[-100.42679332010448,20.6914658943424],[-100.42583383154124,20.692369136260822],[-100.43159076292068,20.697788587771356],[-100.43159076292068,20.701258134998962],[-100.43129643629072,20.701535310945474],[-100.43225557391997,20.70243855874287],[-100.43417384917848,20.70243855874287],[-100.43513298680773,20.703341806540266],[-100.43513298680773,20.705148302135058],[-100.43609212443698,20.706051549932454],[-100.43844929880633,20.706051549932454],[-100.43991207374685,20.707428574833134],[-100.44118564855307,20.708627490792423],[-100.44118564855307,20.710066020327876],[-100.44151140990627,20.710740639368055],[-100.44214513711631,20.71133721654769],[-100.44310462567955,20.710433974629268],[-100.44310462567955,20.70682100695558],[-100.44502360280603,20.705014523118734],[-100.44502360280603,20.701401555445045],[-100.44310462567955,20.6995950716082],[-100.44310462567955,20.697788587771356],[-100.44406411424279,20.696885345852934],[-100.44598309136927,20.696885345852934],[-100.44886155705899,20.694175620097667],[-100.44886155705899,20.692369136260822],[-100.44959952562546,20.69167442850791],[-100.45047918887576,20.692502832971513],[-100.45047918887576,20.694309328566305],[-100.45078053418547,20.694593114207645],[-100.45078053418547,20.697788587771356],[-100.45174002274871,20.69869182968978],[-100.45269951131195,20.697788587771356],[-100.45293938345276,20.69598210393451],[-100.45269951131195,20.692369136260822],[-100.45269951131195,20.690562652423978],[-100.45351699634345,20.689793089579325],[-100.45527487702202,20.689793089579325],[-100.45541682769189,20.689659410505556],[-100.45557797700167,20.689659410505556],[-100.4565374655649,20.688756168587133],[-100.45461848843843,20.68694968475029],[-100.45461848843843,20.685143200913444],[-100.45365899987519,20.684239958995022],[-100.45174002274871,20.684239958995022],[-100.44959954435718,20.686254959363737],[-100.44952005124651,20.68618009838974],[-100.44590425671093,20.689585197251986],[-100.44214513711631,20.686046442831866],[-100.44022615998983,20.68785292666871],[-100.4392666714266,20.68694968475029],[-100.4392666714266,20.685143200913444],[-100.44200318354513,20.682567107200157],[-100.45527487702202,20.682567107200157],[-100.46198884042678,20.676244372618385],[-100.45047918887576,20.665405399049632],[-100.45047918887576,20.661792407860048],[-100.44856091361726,20.659985912265256],[-100.44952005124651,20.65908266446786],[-100.45143832650501,20.65908266446786],[-100.45527487702202,20.662695655657444],[-100.45719315228052,20.662695655657444],[-100.46007056516828,20.659985912265256],[-100.46007056516828,20.658179416670464],[-100.45911142753903,20.657276168873068],[-100.45815228990978,20.658179416670464],[-100.45815228990978,20.659985912265256],[-100.45719315228052,20.660889160062652],[-100.45623401465127,20.659985912265256],[-100.45623401465127,20.656372921075672],[-100.45719315228052,20.655469673278276],[-100.45911142753903,20.655469673278276],[-100.46007056516828,20.65456642548088],[-100.46007056516828,20.652759929886088],[-100.46294797805604,20.6500501864939],[-100.46678452857304,20.6500501864939],[-100.46870280383155,20.648243690899108],[-100.4696619414608,20.649146938696504],[-100.4696619414608,20.650953434291296],[-100.47253935434856,20.653663177683484],[-100.47349849197781,20.652759929886088],[-100.4715802167193,20.650953434291296],[-100.4715802167193,20.649146938696504],[-100.4696619414608,20.64734044310171],[-100.47062107909005,20.646437195304316],[-100.47253935434856,20.646437195304316],[-100.47349849197781,20.64553394750692],[-100.4715802167193,20.643727451912127],[-100.4715802167193,20.640114460722543],[-100.47062107909005,20.639211212925147],[-100.46870280383155,20.639211212925147],[-100.46390711568529,20.634694973938167],[-100.46582539094379,20.632888478343375],[-100.46486625331454,20.63198523054598],[-100.46102970279753,20.635598221735563],[-100.46007056516828,20.634694973938167],[-100.46007056516828,20.631081982748583],[-100.46390711568529,20.627468991559],[-100.45911142753903,20.62295275257202],[-100.45527487702202,20.62295275257202],[-100.45431573939277,20.622049504774623],[-100.45623401465127,20.62024300917983],[-100.45527487702202,20.619339761382435],[-100.45143832650501,20.619339761382435],[-100.45047918887576,20.61843651358504],[-100.45047918887576,20.614823522395454],[-100.44856091361726,20.613017026800662],[-100.45047918887576,20.61121053120587],[-100.44952005124651,20.610307283408474],[-100.447601775988,20.612113779003266],[-100.443765225471,20.612113779003266],[-100.44280608784175,20.61121053120587],[-100.44280608784175,20.609404035611078],[-100.44037867191527,20.607118067443338],[-100.43992867495399,20.60669429221889],[-100.43417384917848,20.60669429221889],[-100.43033729866147,20.603081301029306],[-100.42841902340297,20.603081301029306],[-100.4282003125093,20.602875334620578],[-100.42881141923135,20.602299644146115],[-100.42785259836819,20.60139639105182],[-100.42662985705685,20.60139639105182],[-100.42650074814446,20.601274805434514],[-100.42458247288596,20.601274805434514],[-100.4236233352567,20.600371557637118],[-100.4236233352567,20.599961031716216],[-100.42593495664187,20.59778337867465],[-100.42785259836819,20.599589884863235],[-100.42977024009451,20.59778337867465],[-100.43168788182084,20.59778337867465],[-100.43456434441032,20.59507361939177],[-100.43456434441032,20.593267113203183],[-100.432646702684,20.591460607014596],[-100.43360552354716,20.590557353920303],[-100.43552316527348,20.590557353920303],[-100.43641716879026,20.589715161730023],[-100.43648198613664,20.58965410082601],[-100.43360552354716,20.58694434154313],[-100.43168788182084,20.58694434154313],[-100.43072906095767,20.586041088448837],[-100.43072906095767,20.58423458226025],[-100.43168788182084,20.583331329165958],[-100.44127609045245,20.583331329165958],[-100.44607019476825,20.578815063694492],[-100.44607019476825,20.57520205131732],[-100.44511137390509,20.574298798223026],[-100.44319373217877,20.574298798223026],[-100.43935844872613,20.5779118106002],[-100.43552316527348,20.5779118106002],[-100.43456434441032,20.578815063694492],[-100.43456434441032,20.58062156988308],[-100.43360552354716,20.58152482297737],[-100.432646702684,20.58062156988308],[-100.432646702684,20.577008557505906],[-100.43072906095767,20.57520205131732],[-100.43072906095767,20.571589038940147],[-100.42881141923135,20.56978253275156],[-100.42881141923135,20.567976026562974],[-100.42852098183477,20.56770242125541],[-100.42910519987345,20.567151939787436],[-100.43102242611349,20.567151939787436],[-100.43389826547354,20.569861709373072],[-100.4319810392335,20.571668222430162],[-100.43293965235353,20.572571478958707],[-100.43485687859356,20.572571478958707],[-100.43581549171358,20.573474735487252],[-100.43581549171358,20.575281248544343],[-100.4367741048336,20.576184505072888],[-100.43869133107364,20.574377992015798],[-100.44060855731368,20.574377992015798],[-100.44348439667374,20.571668222430162],[-100.43964994419366,20.56805519631598],[-100.43964994419366,20.56263565714471],[-100.43581549171358,20.55902263103053],[-100.44060855731368,20.554506348387804],[-100.4415671704337,20.55540960491635],[-100.4415671704337,20.55721611797344],[-100.44348439667374,20.55902263103053],[-100.44348439667374,20.5644421702018],[-100.44444300979376,20.565345426730346],[-100.4463602360338,20.565345426730346],[-100.44827746227384,20.567151939787436],[-100.44923607539386,20.56624868325889],[-100.44923607539386,20.5644421702018],[-100.45019468851388,20.563538913673256],[-100.45594636723399,20.563538913673256],[-100.45690498035401,20.56263565714471],[-100.45690498035401,20.55360309185926],[-100.45786359347403,20.552699835330714],[-100.46361527219415,20.552699835330714],[-100.46553249843419,20.554506348387804],[-100.46936695091426,20.554506348387804],[-100.47032556403428,20.55360309185926],[-100.46936695091426,20.552699835330714],[-100.46744972467422,20.552699835330714],[-100.4664911115542,20.55179657880217],[-100.46744972467422,20.550893322273623],[-100.47320140339434,20.550893322273623],[-100.47511862963438,20.552699835330714],[-100.47703585587442,20.552699835330714],[-100.47799446899444,20.55360309185926],[-100.47799446899444,20.55540960491635],[-100.47991169523448,20.55721611797344],[-100.47991169523448,20.56624868325889],[-100.4808703083545,20.567151939787436],[-100.48250538756838,20.567151939787436],[-100.48250538756838,20.567976026562974],[-100.47867010411574,20.571589038940147],[-100.47867010411574,20.573395545128733],[-100.48154656670522,20.576105304411612],[-100.48250538756838,20.57520205131732],[-100.48058774584206,20.573395545128733],[-100.48058774584206,20.571589038940147],[-100.4844230292947,20.567976026562974],[-100.4844230292947,20.561997863134227],[-100.48470476083457,20.561732400616165],[-100.48662198707461,20.561732400616165],[-100.48758060019463,20.56082914408762],[-100.4856633739546,20.55902263103053],[-100.4856633739546,20.55540960491635],[-100.48758060019463,20.55360309185926],[-100.48662198707461,20.552699835330714],[-100.48470476083457,20.552699835330714],[-100.48374614771456,20.55179657880217],[-100.48374614771456,20.546377039630897],[-100.48182892147452,20.544570526573807],[-100.48182892147452,20.540957500459626],[-100.48470476083457,20.53824773087399],[-100.48662198707461,20.54005424393108],[-100.49620811827481,20.54005424393108],[-100.49716673139483,20.539150987402536],[-100.49716673139483,20.537344474345446],[-100.49908395763487,20.535537961288355],[-100.49908395763487,20.531924935174175],[-100.5010011838749,20.530118422117084],[-100.50004257075489,20.52921516558854],[-100.49429089203477,20.53463470475981],[-100.48853921331465,20.52921516558854],[-100.48758060019463,20.530118422117084],[-100.48758060019463,20.531924935174175],[-100.48662198707461,20.53282819170272],[-100.48278753459454,20.53282819170272],[-100.47991169523448,20.530118422117084],[-100.47991169523448,20.528311909059994],[-100.48182892147452,20.526505396002904],[-100.48182892147452,20.524698882945813],[-100.48374614771456,20.522892369888723],[-100.48374614771456,20.521085856831633],[-100.4856633739546,20.519279343774542],[-100.48470476083457,20.518376087245997],[-100.4808703083545,20.518376087245997],[-100.47991169523448,20.517472830717452],[-100.4808703083545,20.516569574188907],[-100.48278753459454,20.516569574188907],[-100.48374614771456,20.51566631766036],[-100.47991169523448,20.51205329154618],[-100.47991169523448,20.51024677848909],[-100.47895308211446,20.509343521960545],[-100.47703585587442,20.509343521960545],[-100.47511862963438,20.511150035017636],[-100.47320140339434,20.511150035017636],[-100.47032556403428,20.51385980460327],[-100.47032556403428,20.517472830717452],[-100.46936695091426,20.518376087245997],[-100.46840833779424,20.517472830717452],[-100.46840833779424,20.51566631766036],[-100.46553249843419,20.512956548074726],[-100.46361527219415,20.514763061131816],[-100.46169804595411,20.514763061131816],[-100.46073943283409,20.51385980460327],[-100.46265665907413,20.51205329154618],[-100.46169804595411,20.511150035017636],[-100.45594636723399,20.511150035017636],[-100.45402914099395,20.512956548074726],[-100.45019468851388,20.512956548074726],[-100.44827746227384,20.514763061131816],[-100.44252578355372,20.514763061131816],[-100.43869133107364,20.511150035017636],[-100.4367741048336,20.512956548074726],[-100.43389826547354,20.51024677848909],[-100.43389826547354,20.50663375237491],[-100.4319810392335,20.50482723931782],[-100.4319810392335,20.50302072626073],[-100.43102242611349,20.502117469732184],[-100.42718797363341,20.502117469732184],[-100.42527074739337,20.500310956675094],[-100.42431213427335,20.50121421320364],[-100.42431213427335,20.50302072626073],[-100.42335352115333,20.503923982789274],[-100.42143629491329,20.503923982789274],[-100.42047768179327,20.50482723931782],[-100.42431213427335,20.508440265432],[-100.42431213427335,20.51385980460327],[-100.42335352115333,20.514763061131816],[-100.42143629491329,20.514763061131816],[-100.41951906867325,20.512956548074726],[-100.41760184243321,20.512956548074726],[-100.4166432293132,20.51205329154618],[-100.4166432293132,20.51024677848909],[-100.41568461619318,20.509343521960545],[-100.4118501637131,20.509343521960545],[-100.40993293747306,20.507537008903455],[-100.407057098113,20.51024677848909],[-100.40801571123302,20.511150035017636],[-100.40993293747306,20.511150035017636],[-100.41089155059308,20.51205329154618],[-100.41089155059308,20.51385980460327],[-100.41280877683312,20.51566631766036],[-100.41280877683312,20.517472830717452],[-100.4118501637131,20.518376087245997],[-100.40993293747306,20.518376087245997],[-100.40897432435304,20.519279343774542],[-100.40897432435304,20.521085856831633],[-100.40801571123302,20.521989113360178],[-100.4022640325129,20.521989113360178],[-100.39938819315284,20.524698882945813],[-100.39938819315284,20.530118422117084],[-100.39842958003283,20.53102167864563],[-100.39267790131271,20.53102167864563],[-100.39171928819269,20.531924935174175],[-100.39171928819269,20.537344474345446],[-100.39651235379279,20.54186075698817],[-100.40034680627286,20.54186075698817],[-100.4022640325129,20.543667270045262],[-100.40418125875294,20.54186075698817],[-100.407057098113,20.544570526573807],[-100.40322264563292,20.548183552687988],[-100.40418125875294,20.549086809216533],[-100.40609848499298,20.549086809216533],[-100.407057098113,20.549990065745078],[-100.407057098113,20.55179657880217],[-100.40609848499298,20.552699835330714],[-100.40418125875294,20.552699835330714],[-100.40311545618692,20.553704091485567],[-100.4022640325129,20.554506348387804],[-100.39842958003283,20.554506348387804],[-100.3974709669128,20.55540960491635],[-100.39842958003283,20.556312861444894],[-100.40034680627286,20.556312861444894],[-100.40063418212456,20.5565836423353],[-100.39908797247335,20.55804024252575],[-100.39717033074703,20.55804024252575],[-100.39621150988387,20.557136989431456],[-100.39621150988387,20.55533048324287],[-100.39525268902071,20.554427230148576],[-100.39333504729439,20.554427230148576],[-100.39237622643122,20.553523977054283],[-100.39237622643122,20.551717470865697],[-100.39141740556806,20.550814217771403],[-100.38949976384174,20.55262072395999],[-100.38758212211542,20.55262072395999],[-100.38662330125226,20.551717470865697],[-100.38662330125226,20.54991096467711],[-100.3856644803891,20.549007711582817],[-100.38374683866277,20.549007711582817],[-100.38182919693645,20.550814217771403],[-100.38087037607329,20.54991096467711],[-100.38087037607329,20.547280296159443],[-100.38117454387248,20.547280296159443],[-100.38309177011251,20.549086809216533],[-100.38596760947257,20.546377039630897],[-100.38500899635255,20.545473783102352],[-100.38309177011251,20.545473783102352],[-100.3830078395141,20.545394699205644],[-100.38374683866277,20.545394699205644],[-100.38470565952593,20.54449144611135],[-100.3838307804781,20.543667270045262],[-100.38884344883263,20.543667270045262],[-100.38980206195265,20.542764013516717],[-100.38980206195265,20.539150987402536],[-100.38884344883263,20.53824773087399],[-100.38692622259259,20.5364412178169],[-100.38596760947257,20.537344474345446],[-100.38596760947257,20.539150987402536],[-100.38309177011251,20.54186075698817],[-100.38117454387248,20.54186075698817],[-100.3773400913924,20.545473783102352],[-100.37542286515236,20.545473783102352],[-100.37446425203234,20.546377039630897],[-100.37446425203234,20.548183552687988],[-100.3725470257923,20.549990065745078],[-100.37283140245847,20.55025802064254],[-100.37032334657852,20.55262072395999],[-100.3684057048522,20.55262072395999],[-100.36457042139955,20.556233736337163],[-100.35689985449426,20.556233736337163],[-100.35402339190478,20.558943495620042],[-100.35402339190478,20.566169520374388],[-100.3559410336311,20.567976026562974],[-100.3559410336311,20.56978253275156],[-100.35306457104161,20.57249229203444],[-100.35114692931529,20.57249229203444],[-100.34731164586265,20.576105304411612],[-100.34635282499949,20.57520205131732],[-100.34635282499949,20.573395545128733],[-100.34539400413632,20.57249229203444],[-100.33964107895736,20.57249229203444],[-100.33772343723103,20.570685785845853],[-100.33580579550471,20.570685785845853],[-100.33388815377839,20.568879279657267],[-100.33197051205207,20.568879279657267],[-100.33005287032574,20.56707277346868],[-100.32813522859942,20.56707277346868],[-100.3262175868731,20.568879279657267],[-100.32429994514678,20.568879279657267],[-100.32238230342045,20.56707277346868],[-100.32046466169413,20.568879279657267],[-100.31471173651516,20.568879279657267],[-100.313752915652,20.56978253275156],[-100.31662937824149,20.57249229203444],[-100.32429994514678,20.57249229203444],[-100.3262175868731,20.574298798223026],[-100.33005287032574,20.574298798223026],[-100.33197051205207,20.576105304411612],[-100.33580579550471,20.576105304411612],[-100.33772343723103,20.5779118106002],[-100.33964107895736,20.5779118106002],[-100.34443518327316,20.582428076071665],[-100.34443518327316,20.58423458226025],[-100.34251754154684,20.586041088448837],[-100.34443518327316,20.587847594637424],[-100.34443518327316,20.591460607014596],[-100.34635282499949,20.593267113203183],[-100.34635282499949,20.59507361939177],[-100.34731164586265,20.595976872486062],[-100.34922928758897,20.594170366297476],[-100.35114692931529,20.594170366297476],[-100.35210575017845,20.593267113203183],[-100.35018810845213,20.591460607014596],[-100.35018810845213,20.58965410082601],[-100.35114692931529,20.588750847731717],[-100.35306457104161,20.58897666100529],[-100.35498221276794,20.590557353920303],[-100.35402339190478,20.591460607014596],[-100.35498221276794,20.59236386010889],[-100.3607351379469,20.59236386010889],[-100.36552924226271,20.596880125580356],[-100.36552924226271,20.598686631768942],[-100.36457042139955,20.599589884863235],[-100.36265277967323,20.59778337867465],[-100.36081067015209,20.599518730072305],[-100.35733712546062,20.599518730072305],[-100.35637811716879,20.600421980023384],[-100.35637811716879,20.602228479925543],[-100.35733712546062,20.603131729876623],[-100.35925514204428,20.603131729876623],[-100.3602141503361,20.604034979827702],[-100.3602141503361,20.606353562736864]]]},"properties":{"id_oficina":10,"nombre":"Quer\u00e9taro","fecha_creacion":"2025-11-05 12:00:00.000000"}},{"type":"Feature","geometry":{"type":"Polygon","coordinates":[[[-99.6070434591858,19.3071196814999],[-99.60863223206252,19.3071196814999],[-99.61053441255353,19.308926449157298],[-99.61243659304455,19.308926449157298],[-99.61433877353556,19.310733216814697],[-99.61624095402658,19.310733216814697],[-99.61719204427209,19.311636600643396],[-99.61719204427209,19.313443368300796],[-99.6181431345176,19.314346752129495],[-99.62004531500861,19.314346752129495],[-99.62099640525412,19.315250135958195],[-99.62099640525412,19.317056903615594],[-99.62194749549963,19.317960287444293],[-99.62384967599064,19.317960287444293],[-99.62480076623615,19.318863671272993],[-99.62480076623615,19.320670438930392],[-99.62289858574513,19.32247720658779],[-99.62384967599064,19.32338059041649],[-99.62765403697267,19.319767055101693],[-99.62955621746369,19.319767055101693],[-99.63336057844572,19.316153519786894],[-99.63431166869123,19.317056903615594],[-99.63431166869123,19.318863671272993],[-99.63716493942775,19.321573822759092],[-99.63811602967326,19.320670438930392],[-99.63811602967326,19.318863671272993],[-99.63906711991876,19.317960287444293],[-99.6428714809008,19.317960287444293],[-99.64477366139181,19.319767055101693],[-99.64762693212833,19.317056903615594],[-99.64572475163732,19.315250135958195],[-99.64572475163732,19.313443368300796],[-99.64762693212833,19.311636600643396],[-99.64572475163732,19.309829832985997],[-99.64572475163732,19.308023065328598],[-99.64667584188282,19.3071196814999],[-99.64857802237384,19.3071196814999],[-99.65048020286486,19.3053129138425],[-99.65238238335587,19.3053129138425],[-99.65266077724851,19.30557734357649],[-99.6520321960561,19.30617432203144],[-99.65333347360138,19.307410176154672],[-99.65333347360138,19.308023065328598],[-99.6552356540924,19.309829832985997],[-99.6552356540924,19.315250135958195],[-99.6561867443379,19.316153519786894],[-99.65713783458341,19.315250135958195],[-99.65713783458341,19.31216595832113],[-99.6577394255437,19.311594613129273],[-99.6577394255437,19.309787849429995],[-99.65947601082175,19.308138573236757],[-99.6596418353729,19.30758599493615],[-99.6596418353729,19.30617432203144],[-99.66023433215848,19.30561161379281],[-99.6605930402875,19.3052709401818],[-99.66184909558085,19.3052709401818],[-99.66189328581095,19.3053129138425],[-99.66379546630196,19.3053129138425],[-99.66383965653206,19.3052709401818],[-99.6643978599459,19.3052709401818],[-99.67105629434809,19.311594613129273],[-99.67010508943349,19.312497994978912],[-99.66820267960429,19.312497994978912],[-99.66725147468969,19.31340137682855],[-99.66725147468969,19.31520814052783],[-99.67010508943349,19.317918286076747],[-99.67486111400649,19.31340137682855],[-99.67295870417729,19.311594613129273],[-99.67676352383569,19.307981085730717],[-99.67676352383569,19.30617432203144],[-99.67866593366489,19.30436755833216],[-99.67866593366489,19.300754030933604],[-99.67961713857949,19.299850649083965],[-99.68151954840869,19.299850649083965],[-99.68247075332329,19.300754030933604],[-99.68247075332329,19.30617432203144],[-99.68342195823789,19.307077703881077],[-99.68532436806709,19.307077703881077],[-99.68627557298169,19.307981085730717],[-99.68627557298169,19.309787849429995],[-99.68437316315249,19.311594613129273],[-99.68532436806709,19.312497994978912],[-99.68912918772548,19.308884467580356],[-99.69103159755468,19.308884467580356],[-99.69198280246928,19.309787849429995],[-99.69008039264008,19.311594613129273],[-99.69103159755468,19.312497994978912],[-99.69293400738388,19.312497994978912],[-99.69483641721308,19.31430475867819],[-99.69673882704228,19.31430475867819],[-99.69769003195688,19.31340137682855],[-99.69769003195688,19.309787849429995],[-99.69673882704228,19.308658622117946],[-99.70054364670068,19.308658622117946],[-99.69959244178608,19.309787849429995],[-99.70054364670068,19.310691231279634],[-99.70434846635908,19.310691231279634],[-99.70815328601748,19.307077703881077],[-99.70934229216073,19.30617432203144],[-99.71076909953263,19.30436755833216],[-99.71195810567588,19.3052709401818],[-99.71956774499267,19.3052709401818],[-99.72147015482187,19.307077703881077],[-99.72527497448027,19.307077703881077],[-99.72812858922407,19.309787849429995],[-99.72812858922407,19.311594613129273],[-99.73098220396787,19.31430475867819],[-99.73193340888247,19.31340137682855],[-99.73193340888247,19.309787849429995],[-99.73003099905327,19.307981085730717],[-99.73193340888247,19.30617432203144],[-99.73193340888247,19.30436755833216],[-99.73478702362627,19.301657412783243],[-99.73668943345547,19.301657412783243],[-99.73859184328467,19.299850649083965],[-99.73954304819927,19.300754030933604],[-99.73954304819927,19.302560794632882],[-99.74049425311387,19.30346417648252],[-99.74144545802847,19.302560794632882],[-99.74144545802847,19.300754030933604],[-99.74239666294307,19.299850649083965],[-99.74429907277226,19.299850649083965],[-99.74525027768686,19.298947267234325],[-99.74144545802847,19.29533373983577],[-99.74144545802847,19.29352697613649],[-99.74049425311387,19.29262359428685],[-99.73859184328467,19.29443035798613],[-99.73764063837007,19.29352697613649],[-99.73764063837007,19.291720212437212],[-99.73859184328467,19.290816830587573],[-99.74049425311387,19.290816830587573],[-99.74144545802847,19.289913448737934],[-99.73954304819927,19.288106685038656],[-99.73954304819927,19.286299921339378],[-99.73764063837007,19.2844931576401],[-99.73764063837007,19.28268639394082],[-99.73668943345547,19.281783012091182],[-99.73478702362627,19.281783012091182],[-99.73288461379707,19.28358977579046],[-99.73098220396787,19.28358977579046],[-99.73003099905327,19.28268639394082],[-99.73003099905327,19.280879630241543],[-99.72907979413867,19.279976248391904],[-99.72527497448027,19.279976248391904],[-99.72337256465107,19.278169484692626],[-99.72147015482187,19.278169484692626],[-99.72051894990727,19.277266102842987],[-99.72242135973647,19.27545933914371],[-99.72147015482187,19.27455595729407],[-99.71956774499267,19.27455595729407],[-99.71766533516347,19.27274919359479],[-99.71386051550508,19.27274919359479],[-99.71290931059048,19.271845811745152],[-99.71290931059048,19.270039048045874],[-99.71195810567588,19.269135666196235],[-99.70815328601748,19.27274919359479],[-99.70720208110288,19.271845811745152],[-99.70720208110288,19.270039048045874],[-99.71290931059048,19.26461875694804],[-99.71290931059048,19.26281199324876],[-99.71195810567588,19.26190861139912],[-99.71005569584668,19.2637153750984],[-99.70910449093208,19.26281199324876],[-99.70910449093208,19.261005229549482],[-99.70815328601748,19.260101847699843],[-99.70720208110288,19.261005229549482],[-99.70720208110288,19.26281199324876],[-99.70625087618828,19.2637153750984],[-99.70054364670068,19.2637153750984],[-99.69959244178608,19.26281199324876],[-99.69959244178608,19.259198465850204],[-99.69864123687148,19.258295084000565],[-99.69673882704228,19.258295084000565],[-99.69483641721308,19.256488320301287],[-99.69293400738388,19.258295084000565],[-99.68912918772548,19.258295084000565],[-99.68532436806709,19.26190861139912],[-99.68247075332329,19.259198465850204],[-99.68247075332329,19.257391702150926],[-99.68151954840869,19.256488320301287],[-99.67497585944132,19.256488320301287],[-99.67010508943349,19.256488320301287],[-99.66915388451889,19.257391702150926],[-99.66915388451889,19.258006293257736],[-99.667599827284,19.25653018709272],[-99.66379546630196,19.25653018709272],[-99.66284437605646,19.255626803264022],[-99.66474655654747,19.253820035606623],[-99.66474655654747,19.250206500291824],[-99.66379546630196,19.249303116463125],[-99.66284437605646,19.250206500291824],[-99.66284437605646,19.253820035606623],[-99.66189328581095,19.254723419435322],[-99.65808892482892,19.254723419435322],[-99.65713783458341,19.253820035606623],[-99.65713783458341,19.252013267949224],[-99.6561867443379,19.251109884120524],[-99.65048020286486,19.251109884120524],[-99.64572475163732,19.246592964977026],[-99.64762693212833,19.244786197319627],[-99.64572475163732,19.242979429662228],[-99.64762693212833,19.24117266200483],[-99.6428714809008,19.23665574286133],[-99.64192039065529,19.23755912669003],[-99.64192039065529,19.23936589434743],[-99.64096930040978,19.24026927817613],[-99.63716493942775,19.24026927817613],[-99.63621384918224,19.24117266200483],[-99.63811602967326,19.242979429662228],[-99.63811602967326,19.244786197319627],[-99.63716493942775,19.245689581148326],[-99.63526275893673,19.245689581148326],[-99.6314583979547,19.242076045833528],[-99.62955621746369,19.242076045833528],[-99.62575185648166,19.23846251051873],[-99.62384967599064,19.23846251051873],[-99.62289858574513,19.23936589434743],[-99.62480076623615,19.24117266200483],[-99.62480076623615,19.242979429662228],[-99.62194749549963,19.245689581148326],[-99.62004531500861,19.245689581148326],[-99.6190942247631,19.246592964977026],[-99.6190942247631,19.248399732634425],[-99.6181431345176,19.249303116463125],[-99.61719204427209,19.248399732634425],[-99.61719204427209,19.246592964977026],[-99.61433877353556,19.243882813490927],[-99.61243659304455,19.243882813490927],[-99.61053441255353,19.245689581148326],[-99.6067300515715,19.242076045833528],[-99.60482787108049,19.243882813490927],[-99.60292569058947,19.242076045833528],[-99.60197460034396,19.242979429662228],[-99.60482787108049,19.245689581148326],[-99.6067300515715,19.245689581148326],[-99.60768114181701,19.246592964977026],[-99.60768114181701,19.255626803264022],[-99.60958332230803,19.25743357092142],[-99.60958332230803,19.25924033857882],[-99.60768114181701,19.26104710623622],[-99.60768114181701,19.26285387389362],[-99.60863223206252,19.263757257722318],[-99.61053441255353,19.263757257722318],[-99.61243659304455,19.265564025379717],[-99.6181431345176,19.265564025379717],[-99.62289858574513,19.270080944523215],[-99.62194749549963,19.270984328351915],[-99.61624095402658,19.270984328351915],[-99.61528986378107,19.271887712180614],[-99.61528986378107,19.273694479838014],[-99.61433877353556,19.274597863666713],[-99.60102351009846,19.274597863666713],[-99.60021543775046,19.27536540333506],[-99.60028885229605,19.27570682374859],[-99.60109316188289,19.276470789394807],[-99.60099660861306,19.276470789394807],[-99.60031359973871,19.27582191377657],[-99.60004570020828,19.2755674024811],[-99.60004570020828,19.274576024862796],[-99.60004570020828,19.27195385482628],[-99.60194751701783,19.270147080998868],[-99.60004570020828,19.268340307171457],[-99.60004570020828,19.266533533344045],[-99.59909479180351,19.26563014643034],[-99.59812209642243,19.26563014643034],[-99.59719297499396,19.26563014643034],[-99.59529115818441,19.26382337260293],[-99.59434024977963,19.264726759516634],[-99.59624206658918,19.266533533344045],[-99.59529115818441,19.26743692025775],[-99.59338934137486,19.26743692025775],[-99.59243843297008,19.266533533344045],[-99.59243843297008,19.262919985689223],[-99.59338934137486,19.262016598775517],[-99.59529115818441,19.262016598775517],[-99.59699668103804,19.260396309145886],[-99.60004570020828,19.25749966420699],[-99.59909479180351,19.256596277293283],[-99.59719297499396,19.258403051120695],[-99.59656807710468,19.258403051120695],[-99.59338934137486,19.258403051120695],[-99.59243843297008,19.25749966420699],[-99.59243843297008,19.255692890379578],[-99.59148752456531,19.254789503465872],[-99.58958570775576,19.254789503465872],[-99.58768389094621,19.256596277293283],[-99.58197844051756,19.256596277293283],[-99.58007662370801,19.254789503465872],[-99.57817480689846,19.254789503465872],[-99.57722389849368,19.253886116552167],[-99.57817480689846,19.25298272963846],[-99.58007662370801,19.25298272963846],[-99.58102753211278,19.252079342724755],[-99.58102753211278,19.250272568897344],[-99.57912571530323,19.248465795069933],[-99.57912571530323,19.2430454735877],[-99.57817480689846,19.242142086673994],[-99.57722389849368,19.2430454735877],[-99.57722389849368,19.248465795069933],[-99.57627299008891,19.24936918198364],[-99.57246935646981,19.24936918198364],[-99.57151844806504,19.250272568897344],[-99.57246935646981,19.25117595581105],[-99.57627299008891,19.25117595581105],[-99.57722389849368,19.252079342724755],[-99.57627299008891,19.25298272963846],[-99.57437117327936,19.25298272963846],[-99.57246935646981,19.254789503465872],[-99.56866572285071,19.254789503465872],[-99.56676390604116,19.25298272963846],[-99.56296027242206,19.25298272963846],[-99.56200936401729,19.252079342724755],[-99.56200936401729,19.250272568897344],[-99.56391118082684,19.248465795069933],[-99.56296027242206,19.247562408156227],[-99.56105845561251,19.24936918198364],[-99.55915663880296,19.247562408156227],[-99.55725482199341,19.24936918198364],[-99.55630391358864,19.248465795069933],[-99.55630391358864,19.24665902124252],[-99.55820573039819,19.24485224741511],[-99.55725482199341,19.243948860501405],[-99.55535300518386,19.243948860501405],[-99.55250027996954,19.241238699760288],[-99.55250027996954,19.239431925932877],[-99.55154937156476,19.23852853901917],[-99.55059846315999,19.239431925932877],[-99.55059846315999,19.241238699760288],[-99.54964755475521,19.242142086673994],[-99.54774573794566,19.240335312846582],[-99.54679482954089,19.241238699760288],[-99.54869664635044,19.2430454735877],[-99.54584392113611,19.245755634328816],[-99.54394210432656,19.245755634328816],[-99.54299119592179,19.24665902124252],[-99.54584392113611,19.24936918198364],[-99.54774573794566,19.24936918198364],[-99.54869664635044,19.250272568897344],[-99.54584392113611,19.25298272963846],[-99.54394210432656,19.25298272963846],[-99.54299119592179,19.253886116552167],[-99.54299119592179,19.255692890379578],[-99.54204028751701,19.256596277293283],[-99.54013847070746,19.254789503465872],[-99.53823665389791,19.254789503465872],[-99.53633483708836,19.256596277293283],[-99.53443302027881,19.256596277293283],[-99.53253120346926,19.254789503465872],[-99.53062938665971,19.254789503465872],[-99.52777666144539,19.25749966420699],[-99.52777666144539,19.2593064380344],[-99.52397302782629,19.262919985689223],[-99.52587484463584,19.264726759516634],[-99.52016939420719,19.270147080998868],[-99.52016939420719,19.27195385482628],[-99.52112030261196,19.27308308846841],[-99.52112030261196,19.27443816883897],[-99.519931667106,19.2755674024811],[-99.51850530449883,19.2755674024811],[-99.51731666899286,19.271276314641],[-99.51826757739764,19.270147080998868],[-99.51731666899286,19.269017847356736],[-99.51660348768928,19.266533533344045],[-99.51636576058809,19.262919985689223],[-99.51541485218331,19.26179075204709],[-99.51470167087973,19.26111321186181],[-99.51351303537376,19.260209824948106],[-99.50970940175466,19.260209824948106],[-99.50780758494511,19.262016598775517],[-99.50590576813556,19.262016598775517],[-99.50400395132601,19.26382337260293],[-99.50210213451646,19.26382337260293],[-99.49924940930214,19.266533533344045],[-99.50020031770691,19.26743692025775],[-99.50400395132601,19.26743692025775],[-99.50495485973079,19.268340307171457],[-99.50495485973079,19.2755674024811],[-99.50400395132601,19.276470789394807],[-99.50210213451646,19.276470789394807],[-99.50115122611169,19.277374176308513],[-99.50210213451646,19.27827756322222],[-99.50400395132601,19.279858490321203],[-99.50305304292124,19.280987723963335],[-99.50210213451646,19.283697884704452],[-99.49829850089736,19.283697884704452],[-99.49734759249259,19.282794497790746],[-99.49924940930214,19.280987723963335],[-99.49734759249259,19.279180950135924],[-99.49734759249259,19.277374176308513],[-99.49639668408781,19.276470789394807],[-99.49449486727826,19.276470789394807],[-99.49259305046871,19.27827756322222],[-99.49069123365916,19.276470789394807],[-99.48878941684961,19.27827756322222],[-99.48308396642096,19.272857241739985],[-99.47928033280186,19.272857241739985],[-99.47832942439709,19.27376062865369],[-99.48023124120664,19.2755674024811],[-99.47928033280186,19.276470789394807],[-99.47737851599231,19.276470789394807],[-99.47547669918276,19.274664015567396],[-99.47452579077799,19.2755674024811],[-99.47737851599231,19.27827756322222],[-99.47928033280186,19.27827756322222],[-99.48023124120664,19.279180950135924],[-99.48023124120664,19.280987723963335],[-99.48118214961141,19.28189111087704],[-99.48498578323051,19.28189111087704],[-99.48688760004006,19.283697884704452],[-99.48878941684961,19.283697884704452],[-99.49069123365916,19.285504658531863],[-99.49259305046871,19.283697884704452],[-99.49449486727826,19.285504658531863],[-99.49639668408781,19.285504658531863],[-99.49829850089736,19.287311432359274],[-99.50020031770691,19.287311432359274],[-99.50210213451646,19.289118206186686],[-99.50400395132601,19.289118206186686],[-99.50590576813556,19.290924980014097],[-99.50970940175466,19.290924980014097],[-99.51351303537376,19.29453852766892],[-99.51541485218331,19.29453852766892],[-99.51636576058809,19.295441914582625],[-99.51636576058809,19.297248688410036],[-99.52492393623106,19.305379170633387],[-99.52872756985016,19.305379170633387],[-99.53062938665971,19.307185944460798],[-99.53253120346926,19.307185944460798],[-99.53348211187404,19.306282557547092],[-99.53348211187404,19.30447578371968],[-99.53443302027881,19.303572396805976],[-99.53633483708836,19.303572396805976],[-99.53728574549314,19.30447578371968],[-99.53538392868359,19.306282557547092],[-99.53633483708836,19.307185944460798],[-99.53823665389791,19.307185944460798],[-99.54013847070746,19.30899271828821],[-99.54204028751701,19.30899271828821],[-99.54394210432656,19.31079949211562],[-99.54584392113611,19.31079949211562],[-99.54774573794566,19.30899271828821],[-99.54964755475521,19.30899271828821],[-99.55059846315999,19.309896105201915],[-99.55059846315999,19.311702879029326],[-99.54774573794566,19.314413039770443],[-99.54584392113611,19.314413039770443],[-99.54394210432656,19.31260626594303],[-99.54299119592179,19.313509652856737],[-99.54299119592179,19.31712320051156],[-99.54489301273134,19.31892997433897],[-99.54489301273134,19.320736748166382],[-99.54584392113611,19.321640135080088],[-99.55154937156476,19.321640135080088],[-99.55250027996954,19.322543521993794],[-99.55059846315999,19.324350295821205],[-99.55154937156476,19.32525368273491],[-99.55630391358864,19.320736748166382],[-99.55630391358864,19.31892997433897],[-99.55725482199341,19.318026587425265],[-99.56105845561251,19.318026587425265],[-99.56200936401729,19.31892997433897],[-99.56200936401729,19.320736748166382],[-99.56486208923161,19.3234469089075],[-99.56581299763639,19.322543521993794],[-99.56581299763639,19.31892997433897],[-99.56676390604116,19.318026587425265],[-99.56771481444594,19.31892997433897],[-99.56771481444594,19.322543521993794],[-99.56866572285071,19.3234469089075],[-99.57246935646981,19.319833361252677],[-99.57437117327936,19.319833361252677],[-99.57912571530323,19.31531642668415],[-99.57912571530323,19.313509652856737],[-99.58388025732711,19.30899271828821],[-99.58578207413666,19.31079949211562],[-99.59338934137486,19.303572396805976],[-99.59529115818441,19.303572396805976],[-99.59624206658918,19.30266900989227],[-99.59624206658918,19.30086223606486],[-99.59719297499396,19.299958849151153],[-99.59909479180351,19.299958849151153],[-99.60099660861306,19.298152075323742],[-99.60289842542261,19.298152075323742],[-99.60568428025549,19.300798707519725],[-99.60575115063693,19.30086223606486],[-99.60575115063693,19.30110969375687],[-99.60575115063693,19.30447578371968],[-99.60384933382738,19.306282557547092],[-99.60480024223216,19.307185944460798],[-99.605799930717,19.3062362152435],[-99.6067300515715,19.3071196814999],[-99.6070434591858,19.3071196814999]]]},"properties":{"id_oficina":19,"nombre":"Toluca"}}]}